{"type": "FeatureCollection", "features": [ {"type": "Feature", "properties": {"norad_id": 66493, "name": "STARLINK-35597", "group": "last-30-days", "lat": 3.2035971633387303, "lon": 145.83283275408564, "alt_km": 414.66194505056774, "timestamp": "2025-12-09T18:55:16.021896+00:00", "meta": {"OBJECT_NAME": "STARLINK-35597", "OBJECT_ID": "2025-263J", "EPOCH": "2025-12-09T14:00:01.999872", "MEAN_MOTION": 15.50580353, "ECCENTRICITY": 0.0001451, "INCLINATION": 43.0003, "RA_OF_ASC_NODE": 143.5888, "ARG_OF_PERICENTER": 261.074, "MEAN_ANOMALY": 37.8761, "EPHEMERIS_TYPE": 0, "CLASSIFICATION_TYPE": "U", "NORAD_CAT_ID": 66493, "ELEMENT_SET_NO": 999, "REV_AT_EPOCH": 512, "BSTAR": -0.0011060045, "MEAN_MOTION_DOT": -0.00064695, "MEAN_MOTION_DDOT": 0}, "tle": {"line1": "1 66493U 25263J   25343.58335648 -.00064695  00000+0 -11060-2 0  9996", "line2": "2 66493  43.0003 143.5888 0001451 261.0740  37.8761 15.50580353  5123"}}, "geometry": {"type": "Point", "coordinates": [145.83283275408564, 3.2035971633387303]}}, {"type": "Feature", "properties": {"norad_id": 66494, "name": "STARLINK-35689", "group": "last-30-days", "lat": -0.7174928816729133, "lon": 141.6352829989305, "alt_km": 415.0268733313251, "timestamp": "2025-12-09T18:55:16.021907+00:00", "meta": {"OBJECT_NAME": "STARLINK-35689", "OBJECT_ID": "2025-263K", "EPOCH": "2025-12-09T14:00:01.999872", "MEAN_MOTION": 15.50588863, "ECCENTRICITY": 0.00014201, "INCLINATION": 43.0004, "RA_OF_ASC_NODE": 143.6048, "ARG_OF_PERICENTER": 263.8335, "MEAN_ANOMALY": 29.3588, "EPHEMERIS_TYPE": 0, "CLASSIFICATION_TYPE": "U", "NORAD_CAT_ID": 66494, "ELEMENT_SET_NO": 999, "REV_AT_EPOCH": 512, "BSTAR": -0.0013337187, "MEAN_MOTION_DOT": -0.00077838, "MEAN_MOTION_DDOT": 0}, "tle": {"line1": "1 66494U 25263K   25343.58335648 -.00077838  00000+0 -13337-2 0  9999", "line2": "2 66494  43.0004 143.6048 0001420 263.8335  29.3588 15.50588863  5127"}}, "geometry": {"type": "Point", "coordinates": [141.6352829989305, -0.7174928816729133]}}, {"type": "Feature", "properties": {"norad_id": 66495, "name": "STARLINK-35832", "group": "last-30-days", "lat": 4.500662920226571, "lon": 147.23090075562394, "alt_km": 414.29475740432827, "timestamp": "2025-12-09T18:55:16.021919+00:00", "meta": {"OBJECT_NAME": "STARLINK-35832", "OBJECT_ID": "2025-263L", "EPOCH": "2025-12-09T14:00:01.999872", "MEAN_MOTION": 15.50577198, "ECCENTRICITY": 0.0001397, "INCLINATION": 43.0004, "RA_OF_ASC_NODE": 143.5849, "ARG_OF_PERICENTER": 272.7706, "MEAN_ANOMALY": 28.0855, "EPHEMERIS_TYPE": 0, "CLASSIFICATION_TYPE": "U", "NORAD_CAT_ID": 66495, "ELEMENT_SET_NO": 999, "REV_AT_EPOCH": 512, "BSTAR": -0.00068641249, "MEAN_MOTION_DOT": -0.000404, "MEAN_MOTION_DDOT": 0}, "tle": {"line1": "1 66495U 25263L   25343.58335648 -.00040400  00000+0 -68641-3 0  9994", "line2": "2 66495  43.0004 143.5849 0001397 272.7706  28.0855 15.50577198  5122"}}, "geometry": {"type": "Point", "coordinates": [147.23090075562394, 4.500662920226571]}}, {"type": "Feature", "properties": {"norad_id": 66496, "name": "STARLINK-35909", "group": "last-30-days", "lat": 5.806972683154565, "lon": 148.6452904677712, "alt_km": 414.3137545694135, "timestamp": "2025-12-09T18:55:16.021930+00:00", "meta": {"OBJECT_NAME": "STARLINK-35909", "OBJECT_ID": "2025-263M", "EPOCH": "2025-12-09T14:00:01.999872", "MEAN_MOTION": 15.50592209, "ECCENTRICITY": 0.0001528, "INCLINATION": 43.0004, "RA_OF_ASC_NODE": 143.5793, "ARG_OF_PERICENTER": 263.8723, "MEAN_ANOMALY": 38.9024, "EPHEMERIS_TYPE": 0, "CLASSIFICATION_TYPE": "U", "NORAD_CAT_ID": 66496, "ELEMENT_SET_NO": 999, "REV_AT_EPOCH": 512, "BSTAR": -0.0013795385, "MEAN_MOTION_DOT": -0.00080484, "MEAN_MOTION_DDOT": 0}, "tle": {"line1": "1 66496U 25263M   25343.58335648 -.00080484  00000+0 -13795-2 0  9990", "line2": "2 66496  43.0004 143.5793 0001528 263.8723  38.9024 15.50592209  5125"}}, "geometry": {"type": "Point", "coordinates": [148.6452904677712, 5.806972683154565]}}, {"type": "Feature", "properties": {"norad_id": 66497, "name": "STARLINK-35899", "group": "last-30-days", "lat": 7.101706133288619, "lon": 150.05847864004028, "alt_km": 414.03073209451304, "timestamp": "2025-12-09T18:55:16.021939+00:00", "meta": {"OBJECT_NAME": "STARLINK-35899", "OBJECT_ID": "2025-263N", "EPOCH": "2025-12-09T14:00:01.999872", "MEAN_MOTION": 15.50578016, "ECCENTRICITY": 0.00014948, "INCLINATION": 43.0004, "RA_OF_ASC_NODE": 143.5747, "ARG_OF_PERICENTER": 270.9467, "MEAN_ANOMALY": 33.7455, "EPHEMERIS_TYPE": 0, "CLASSIFICATION_TYPE": "U", "NORAD_CAT_ID": 66497, "ELEMENT_SET_NO": 999, "REV_AT_EPOCH": 512, "BSTAR": -0.00072510457, "MEAN_MOTION_DOT": -0.00042647, "MEAN_MOTION_DDOT": 0}, "tle": {"line1": "1 66497U 25263N   25343.58335648 -.00042647  00000+0 -72510-3 0  9991", "line2": "2 66497  43.0004 143.5747 0001494 270.9467  33.7455 15.50578016  5122"}}, "geometry": {"type": "Point", "coordinates": [150.05847864004028, 7.101706133288619]}}, {"type": "Feature", "properties": {"norad_id": 66498, "name": "STARLINK-35907", "group": "last-30-days", "lat": 6.731284483995258, "lon": 149.65167309315274, "alt_km": 421.44590551843885, "timestamp": "2025-12-09T18:55:16.021952+00:00", "meta": {"OBJECT_NAME": "STARLINK-35907", "OBJECT_ID": "2025-263P", "EPOCH": "2025-12-09T14:00:01.999872", "MEAN_MOTION": 15.49045216, "ECCENTRICITY": 0.00013125, "INCLINATION": 43.0004, "RA_OF_ASC_NODE": 143.5711, "ARG_OF_PERICENTER": 255.8345, "MEAN_ANOMALY": 49.7932, "EPHEMERIS_TYPE": 0, "CLASSIFICATION_TYPE": "U", "NORAD_CAT_ID": 66498, "ELEMENT_SET_NO": 999, "REV_AT_EPOCH": 512, "BSTAR": -0.042603084, "MEAN_MOTION_DOT": -0.02100803, "MEAN_MOTION_DDOT": 0}, "tle": {"line1": "1 66498U 25263P   25343.58335648 -.02100803  00000+0 -42603-1 0  9991", "line2": "2 66498  43.0004 143.5711 0001312 255.8345  49.7932 15.49045216  5126"}}, "geometry": {"type": "Point", "coordinates": [149.65167309315274, 6.731284483995258]}}, {"type": "Feature", "properties": {"norad_id": 66499, "name": "STARLINK-35816", "group": "last-30-days", "lat": 10.960442216764786, "lon": 154.355716955767, "alt_km": 413.67387333113675, "timestamp": "2025-12-09T18:55:16.021964+00:00", "meta": {"OBJECT_NAME": "STARLINK-35816", "OBJECT_ID": "2025-263Q", "EPOCH": "2025-12-09T14:00:01.999872", "MEAN_MOTION": 15.50574862, "ECCENTRICITY": 0.00014633, "INCLINATION": 43.0004, "RA_OF_ASC_NODE": 143.5603, "ARG_OF_PERICENTER": 261.9002, "MEAN_ANOMALY": 48.5333, "EPHEMERIS_TYPE": 0, "CLASSIFICATION_TYPE": "U", "NORAD_CAT_ID": 66499, "ELEMENT_SET_NO": 999, "REV_AT_EPOCH": 512, "BSTAR": -6.6187869e-05, "MEAN_MOTION_DOT": -4.222e-05, "MEAN_MOTION_DDOT": 0}, "tle": {"line1": "1 66499U 25263Q   25343.58335648 -.00004222  00000+0 -66188-4 0  9995", "line2": "2 66499  43.0004 143.5603 0001463 261.9002  48.5333 15.50574862  5120"}}, "geometry": {"type": "Point", "coordinates": [154.355716955767, 10.960442216764786]}}, {"type": "Feature", "properties": {"norad_id": 66500, "name": "STARLINK-35894", "group": "last-30-days", "lat": -20.450659859935566, "lon": 118.88620101631385, "alt_km": 418.69949120779984, "timestamp": "2025-12-09T18:55:16.021976+00:00", "meta": {"OBJECT_NAME": "STARLINK-35894", "OBJECT_ID": "2025-263R", "EPOCH": "2025-12-09T14:00:01.999872", "MEAN_MOTION": 15.50658077, "ECCENTRICITY": 0.00012595, "INCLINATION": 43.0002, "RA_OF_ASC_NODE": 143.6741, "ARG_OF_PERICENTER": 265.2061, "MEAN_ANOMALY": 358.4466, "EPHEMERIS_TYPE": 0, "CLASSIFICATION_TYPE": "U", "NORAD_CAT_ID": 66500, "ELEMENT_SET_NO": 999, "REV_AT_EPOCH": 512, "BSTAR": -0.03517616, "MEAN_MOTION_DOT": -0.01831568, "MEAN_MOTION_DDOT": 0}, "tle": {"line1": "1 66500U 25263R   25343.58335648 -.01831568  00000+0 -35176-1 0  9990", "line2": "2 66500  43.0002 143.6741 0001259 265.2061 358.4466 15.50658077  5121"}}, "geometry": {"type": "Point", "coordinates": [118.88620101631385, -20.450659859935566]}}, {"type": "Feature", "properties": {"norad_id": 66501, "name": "STARLINK-35897", "group": "last-30-days", "lat": 12.243780823123506, "lon": 155.82263101238348, "alt_km": 413.34681116343836, "timestamp": "2025-12-09T18:55:16.021987+00:00", "meta": {"OBJECT_NAME": "STARLINK-35897", "OBJECT_ID": "2025-263S", "EPOCH": "2025-12-09T14:00:01.999872", "MEAN_MOTION": 15.5058503, "ECCENTRICITY": 0.00014081, "INCLINATION": 43.0004, "RA_OF_ASC_NODE": 143.5557, "ARG_OF_PERICENTER": 273.954, "MEAN_ANOMALY": 38.4097, "EPHEMERIS_TYPE": 0, "CLASSIFICATION_TYPE": "U", "NORAD_CAT_ID": 66501, "ELEMENT_SET_NO": 999, "REV_AT_EPOCH": 512, "BSTAR": -0.0011014049, "MEAN_MOTION_DOT": -0.0006444, "MEAN_MOTION_DDOT": 0}, "tle": {"line1": "1 66501U 25263S   25343.58335648 -.00064440  00000+0 -11014-2 0  9993", "line2": "2 66501  43.0004 143.5557 0001408 273.9540  38.4097 15.50585030  5125"}}, "geometry": {"type": "Point", "coordinates": [155.82263101238348, 12.243780823123506]}}, {"type": "Feature", "properties": {"norad_id": 66502, "name": "STARLINK-35922", "group": "last-30-days", "lat": 16.020060296243987, "lon": 160.28705588634332, "alt_km": 413.0293551480545, "timestamp": "2025-12-09T18:55:16.021997+00:00", "meta": {"OBJECT_NAME": "STARLINK-35922", "OBJECT_ID": "2025-263T", "EPOCH": "2025-12-09T14:00:01.999872", "MEAN_MOTION": 15.50596929, "ECCENTRICITY": 0.0001474, "INCLINATION": 43.0005, "RA_OF_ASC_NODE": 143.5407, "ARG_OF_PERICENTER": 264.27, "MEAN_ANOMALY": 53.8415, "EPHEMERIS_TYPE": 0, "CLASSIFICATION_TYPE": "U", "NORAD_CAT_ID": 66502, "ELEMENT_SET_NO": 999, "REV_AT_EPOCH": 512, "BSTAR": -0.0015815486, "MEAN_MOTION_DOT": -0.00092099, "MEAN_MOTION_DDOT": 0}, "tle": {"line1": "1 66502U 25263T   25343.58335648 -.00092099  00000+0 -15815-2 0  9998", "line2": "2 66502  43.0005 143.5407 0001474 264.2700  53.8415 15.50596929  5129"}}, "geometry": {"type": "Point", "coordinates": [160.28705588634332, 16.020060296243987]}}]}